{
  "type": "FeatureCollection",
  "features": [
    {
      "type": "Feature",
      "properties": {
        "norad_id": 40115,
        "name": "WORLDVIEW-3 (WV-3)",
        "group": "resource",
        "lat": -5.763604783845878,
        "lon": 51.00618769128725,
        "alt_km": 617.9480965869161,
        "timestamp": "2025-12-03T19:33:06.636667+00:00",
        "meta_object_name": "WORLDVIEW-3 (WV-3)",
        "meta_object_id": "2014-048A",
        "meta_epoch": "2025-12-03T11:29:41.285184",
        "meta_mean_motion": 14.85473283,
        "meta_eccentricity": 0.0004093,
        "meta_inclination": 97.8626,
        "meta_ra_of_asc_node": 49.8755,
        "meta_arg_of_pericenter": 218.132,
        "meta_mean_anomaly": 141.9606,
        "meta_ephemeris_type": 0,
        "meta_classification_type": "U",
        "meta_norad_cat_id": 40115,
        "meta_element_set_no": 999,
        "meta_rev_at_epoch": 61286,
        "meta_bstar": 0.00021576,
        "meta_mean_motion_dot": 1.808e-05,
        "meta_mean_motion_ddot": 0,
        "tle_line1": "1 40115U 14048A   25337.47895006  .00001808  00000+0  21576-3 0  9997",
        "tle_line2": "2 40115  97.8626  49.8755 0004093 218.1320 141.9606 14.85473283612867"
      },
      "geometry": {
        "type": "Point",
        "coordinates": [
          51.00618769128725,
          -5.763604783845878
        ]
      }
    },
    {
      "type": "Feature",
      "properties": {
        "norad_id": 40118,
        "name": "GAOFEN-2",
        "group": "resource",
        "lat": -31.100160526544958,
        "lon": 41.85846090531426,
        "alt_km": 639.1907789855741,
        "timestamp": "2025-12-03T19:33:06.636677+00:00",
        "meta_object_name": "GAOFEN-2",
        "meta_object_id": "2014-049A",
        "meta_epoch": "2025-12-03T11:35:02.133312",
        "meta_mean_motion": 14.80581481,
        "meta_eccentricity": 0.0008202,
        "meta_inclination": 98.0398,
        "meta_ra_of_asc_node": 36.6346,
        "meta_arg_of_pericenter": 139.6253,
        "meta_mean_anomaly": 220.5569,
        "meta_ephemeris_type": 0,
        "meta_classification_type": "U",
        "meta_norad_cat_id": 40118,
        "meta_element_set_no": 999,
        "meta_rev_at_epoch": 61027,
        "meta_bstar": 0.0001597,
        "meta_mean_motion_dot": 1.172e-05,
        "meta_mean_motion_ddot": 0,
        "tle_line1": "1 40118U 14049A   25337.48266358  .00001172  00000+0  15970-3 0  9999",
        "tle_line2": "2 40118  98.0398  36.6346 0008202 139.6253 220.5569 14.80581481610277"
      },
      "geometry": {
        "type": "Point",
        "coordinates": [
          41.85846090531426,
          -31.100160526544958
        ]
      }
    },
    {
      "type": "Feature",
      "properties": {
        "norad_id": 40143,
        "name": "YAOGAN-21",
        "group": "resource",
        "lat": -6.94115383900683,
        "lon": 22.39558093869108,
        "alt_km": 497.4901036924866,
        "timestamp": "2025-12-03T19:33:06.636687+00:00",
        "meta_object_name": "YAOGAN-21",
        "meta_object_id": "2014-053A",
        "meta_epoch": "2025-12-03T11:42:02.721600",
        "meta_mean_motion": 15.23491007,
        "meta_eccentricity": 0.0010223,
        "meta_inclination": 97.1775,
        "meta_ra_of_asc_node": 21.2036,
        "meta_arg_of_pericenter": 69.8024,
        "meta_mean_anomaly": 290.4312,
        "meta_ephemeris_type": 0,
        "meta_classification_type": "U",
        "meta_norad_cat_id": 40143,
        "meta_element_set_no": 999,
        "meta_rev_at_epoch": 62513,
        "meta_bstar": 0.00052652,
        "meta_mean_motion_dot": 0.00012522,
        "meta_mean_motion_ddot": 0,
        "tle_line1": "1 40143U 14053A   25337.48753150  .00012522  00000+0  52652-3 0  9992",
        "tle_line2": "2 40143  97.1775  21.2036 0010223  69.8024 290.4312 15.23491007625131"
      },
      "geometry": {
        "type": "Point",
        "coordinates": [
          22.39558093869108,
          -6.94115383900683
        ]
      }
    },
    {
      "type": "Feature",
      "properties": {
        "norad_id": 40275,
        "name": "YAOGAN-22",
        "group": "resource",
        "lat": 21.76172316660457,
        "lon": 116.76243727627283,
        "alt_km": 1203.098191647805,
        "timestamp": "2025-12-03T19:33:06.636697+00:00",
        "meta_object_name": "YAOGAN-22",
        "meta_object_id": "2014-063A",
        "meta_epoch": "2025-12-03T08:29:16.965312",
        "meta_mean_motion": 13.15522307,
        "meta_eccentricity": 0.0005877,
        "meta_inclination": 100.7418,
        "meta_ra_of_asc_node": 120.6409,
        "meta_arg_of_pericenter": 270.8741,
        "meta_mean_anomaly": 89.1697,
        "meta_ephemeris_type": 0,
        "meta_classification_type": "U",
        "meta_norad_cat_id": 40275,
        "meta_element_set_no": 999,
        "meta_rev_at_epoch": 53406,
        "meta_bstar": 0.00015567,
        "meta_mean_motion_dot": 1.2e-07,
        "meta_mean_motion_ddot": 0,
        "tle_line1": "1 40275U 14063A   25337.35366858  .00000012  00000+0  15567-3 0  9995",
        "tle_line2": "2 40275 100.7418 120.6409 0005877 270.8741  89.1697 13.15522307534066"
      },
      "geometry": {
        "type": "Point",
        "coordinates": [
          116.76243727627283,
          21.76172316660457
        ]
      }
    },
    {
      "type": "Feature",
      "properties": {
        "norad_id": 40298,
        "name": "ASNARO",
        "group": "resource",
        "lat": 2.7311583510276143,
        "lon": -125.6647495949515,
        "alt_km": 507.9393488683163,
        "timestamp": "2025-12-03T19:33:06.636707+00:00",
        "meta_object_name": "ASNARO",
        "meta_object_id": "2014-070A",
        "meta_epoch": "2025-12-03T12:27:05.918400",
        "meta_mean_motion": 15.19177976,
        "meta_eccentricity": 0.0005135,
        "meta_inclination": 97.367,
        "meta_ra_of_asc_node": 53.6931,
        "meta_arg_of_pericenter": 148.8413,
        "meta_mean_anomaly": 211.3127,
        "meta_ephemeris_type": 0,
        "meta_classification_type": "U",
        "meta_norad_cat_id": 40298,
        "meta_element_set_no": 999,
        "meta_rev_at_epoch": 61429,
        "meta_bstar": 0.00068153,
        "meta_mean_motion_dot": 0.00014289,
        "meta_mean_motion_ddot": 0,
        "tle_line1": "1 40298U 14070A   25337.51881850  .00014289  00000+0  68153-3 0  9990",
        "tle_line2": "2 40298  97.3670  53.6931 0005135 148.8413 211.3127 15.19177976614299"
      },
      "geometry": {
        "type": "Point",
        "coordinates": [
          -125.6647495949515,
          2.7311583510276143
        ]
      }
    },
    {
      "type": "Feature",
      "properties": {
        "norad_id": 40310,
        "name": "YAOGAN-24",
        "group": "resource",
        "lat": 80.74197819503561,
        "lon": -9.965892057692688,
        "alt_km": 630.8572642178924,
        "timestamp": "2025-12-03T19:33:06.636718+00:00",
        "meta_object_name": "YAOGAN-24",
        "meta_object_id": "2014-072A",
        "meta_epoch": "2025-12-03T12:37:03.848736",
        "meta_mean_motion": 14.76144725,
        "meta_eccentricity": 0.0014262,
        "meta_inclination": 98.1218,
        "meta_ra_of_asc_node": 108.5704,
        "meta_arg_of_pericenter": 166.601,
        "meta_mean_anomaly": 193.558,
        "meta_ephemeris_type": 0,
        "meta_classification_type": "U",
        "meta_norad_cat_id": 40310,
        "meta_element_set_no": 999,
        "meta_rev_at_epoch": 59485,
        "meta_bstar": 0.00022715,
        "meta_mean_motion_dot": 1.519e-05,
        "meta_mean_motion_ddot": 0,
        "tle_line1": "1 40310U 14072A   25337.52573899  .00001519  00000+0  22715-3 0  9995",
        "tle_line2": "2 40310  98.1218 108.5704 0014262 166.6010 193.5580 14.76144725594852"
      },
      "geometry": {
        "type": "Point",
        "coordinates": [
          -9.965892057692688,
          80.74197819503561
        ]
      }
    },
    {
      "type": "Feature",
      "properties": {
        "norad_id": 40336,
        "name": "CBERS 4",
        "group": "resource",
        "lat": 58.07691261477275,
        "lon": 22.530904373962034,
        "alt_km": 767.2801377023161,
        "timestamp": "2025-12-03T19:33:06.636728+00:00",
        "meta_object_name": "CBERS 4",
        "meta_object_id": "2014-079A",
        "meta_epoch": "2025-12-03T12:35:10.785696",
        "meta_mean_motion": 14.35528278,
        "meta_eccentricity": 0.0001458,
        "meta_inclination": 98.3322,
        "meta_ra_of_asc_node": 35.8561,
        "meta_arg_of_pericenter": 126.6223,
        "meta_mean_anomaly": 233.5097,
        "meta_ephemeris_type": 0,
        "meta_classification_type": "U",
        "meta_norad_cat_id": 40336,
        "meta_element_set_no": 999,
        "meta_rev_at_epoch": 57588,
        "meta_bstar": 0.00010456,
        "meta_mean_motion_dot": 2.59e-06,
        "meta_mean_motion_ddot": 0,
        "tle_line1": "1 40336U 14079A   25337.52443039  .00000259  00000+0  10456-3 0  9991",
        "tle_line2": "2 40336  98.3322  35.8561 0001458 126.6223 233.5097 14.35528278575880"
      },
      "geometry": {
        "type": "Point",
        "coordinates": [
          22.530904373962034,
          58.07691261477275
        ]
      }
    }
  ]
}